{"fetched_at":"2026-03-29T16:36:15Z","count":15609,"tles":[{"name":"STARLINK-2081","line1":"1 47366U 21005T   26087.90032363 -.00002020  00000+0 -57694-4 0  9993","line2":"2 47366  53.1562 333.3885 0001390  94.8917 265.2242 15.29352578285964","category":"Starlink"}]}