{
  "norad_id": 47366,
  "name": "STARLINK-2081",
  "history": [
    {
      "epoch": "2026-03-28T21:36:27.961632",
      "apogee_km": 478.6994548485718,
      "perigee_km": 476.7935192391742,
      "latitude_deg": -52.2103607615736,
      "longitude_deg": 83.03106848010793,
      "semi_major_axis_km": 6855.883487043873,
      "eccentricity": 0.000139,
      "inclination_deg": 53.1562,
      "raan_deg": 333.3885,
      "arg_perigee_deg": 94.8917,
      "mean_anomaly_deg": 265.2242,
      "mean_motion_rev_day": 15.29352578
    }
  ]
}